#aV2020  3 14  0  0  0.00000000     288 DD+AD WGS84 FIT  NGA
## 2096 518400.00000000   300.00000000 58922 0.0000000000000
+   32     1  2  3  4  5  6  7  8  9 10 11 12 13 14 15 16 17
+         18 19 20 21 22 23 24 25 26 27 28 29 30 31 32  0  0
+          0  0  0  0  0  0  0  0  0  0  0  0  0  0  0  0  0
+          0  0  0  0  0  0  0  0  0  0  0  0  0  0  0  0  0
+          0  0  0  0  0  0  0  0  0  0  0  0  0  0  0  0  0
++         2  2  2  2  2  2  2  2  2  2  2  2  2  2  2  2  2
++         2  2  2  2  2  2  2  2  2  2  2  2  2  2  2  0  0
++         0  0  0  0  0  0  0  0  0  0  0  0  0  0  0  0  0
++         0  0  0  0  0  0  0  0  0  0  0  0  0  0  0  0  0
++         0  0  0  0  0  0  0  0  0  0  0  0  0  0  0  0  0
%c cc cc ccc ccc cccc cccc cccc cccc ccccc ccccc ccccc ccccc
%c cc cc ccc ccc cccc cccc cccc cccc ccccc ccccc ccccc ccccc
%f  0.0000000  0.000000000  0.00000000000  0.000000000000000
%f  0.0000000  0.000000000  0.00000000000  0.000000000000000
%i    0    0    0    0      0      0      0      0         0
%i    0    0    0    0      0      0      0      0         0
/*      NGA, ST. LOUIS,MO.                                  
/*   EPHEMERIS COMPUTED FROM 2 DAYS OF DATA                 
/*   EPOCHA v5 SMOOTHER                                     
/*   G1762 IERS2010 SATAF SATAPC                            
*  2020  3 14 15 50  0.00000000
P  1 -16419.531533 -14022.381346 -15895.408641   -325.677760                    
V  1  19522.641385   2426.445373 -22280.785219     -0.124422                    
P  2  -7388.804425  14466.144532  21646.317417   -421.769814                    
V  2 -25785.078344  -3537.133516  -6710.182764     -0.066987                    
P  3 -13128.528848 -21947.455882   7295.879558   -117.804349                    
V  3   -780.484752  -9600.522010 -29957.886075     -0.098343                    
P  4  -8898.625821 -12663.346133  21591.481535    -62.160780                    
V  4  18713.628444 -20016.371285  -4053.811773     -0.052814                    
P  5    -30.380879  23519.415057  12012.552782     -9.105947                    
V  5  -8210.696606 -13495.717179  26304.882613     -0.006241                    
P  6 -18846.507706   8132.960152  16936.462258   -230.794054                    
V  6 -20737.780702  -5220.357540 -20595.117603     -0.085652                    
P  7 -26185.430171  -5797.565679    886.598054   -235.624166                    
V  7   1257.795803  -2434.440952  31250.907213     -0.084929                    
P  8    953.947047 -19884.933508 -17430.667834    -27.066679                    
V  8  15478.929428 -16078.161830  19407.304314     -0.013578                    
P  9 -16955.826422  -2111.437123  20286.692529   -176.371876                    
V  9  15684.823070 -20636.182744  10915.304449     -0.081559                    
P 10  14314.204218  -4770.255211 -21775.879398   -277.094690                    
V 10   9436.899704  26188.124609    237.166771     -0.125700                    
P 11  -5486.718716 -15567.198754 -21294.583414   -334.201489                    
V 11  25032.805379  -7514.689722  -1282.880989      0.108137                    
P 12  10167.414705  24076.417629   4990.173571    140.777436                    
V 12   -232.798088   6904.439868 -31209.818572     -0.042454                    
P 13  -9785.357651  21009.155688 -13017.850794     -5.823568                    
V 13 -13511.010758   9447.644728  25724.150851      0.028228                    
P 14  18548.477621 -18865.563198    348.931277    -26.355048                    
V 14   2137.467326   2079.789957 -31876.980629      0.025008                    
P 15   2284.916799  19875.458983 -17593.373199   -245.020908                    
V 15 -14387.999556  16794.382460  17793.113776      0.026199                    
P 16   1931.086874 -23516.454543  11515.372524   -134.963844                    
V 16   5976.433207  14038.706090  27609.279525     -0.042587                    
P 17 -20973.734716  13107.346087  -9191.131821    231.945951                    
V 17   7015.070441 -10260.669837 -29346.220971      0.062706                    
P 18  23433.705279  10163.926684   7348.398691     36.288167                    
V 18  -9651.715853    601.490804  29916.878366      4.514225                    
P 19 -20220.381739  17091.270685  -2402.792075   -185.867313                    
V 19    489.701687  -3371.320134 -32039.230363      0.051407                    
P 20  18416.442235   6435.086997 -18196.333667    527.870711                    
V 20   8822.815613  21272.673161  16315.949583     -0.000123                    
P 21  26173.543350   3535.813695    637.238725    -27.906086                    
V 21   -267.402616   3323.170975  31726.174019      0.052068                    
P 22 -10152.679059 -24576.581134  -1146.404435   -785.445720                    
V 22   4071.484240     47.690823 -30930.688060     -0.000588                    
P 23 -10660.153908 -11741.327464  21645.178938   -129.742454                    
V 23  17222.892488 -20441.726482  -3028.762224      0.027075                    
P 24  14996.757064  14400.570259 -16922.432279    -10.339578                    
V 24 -21131.424286   -668.574215 -19157.013719     -0.005563                    
P 25  15955.269098  15764.006645  14199.246353     -9.056540                    
V 25   4303.159732  17903.634707 -24043.089279      0.019110                    
P 26   7836.382749 -16971.045971  18750.263698    167.430089                    
V 26  10344.331823  21722.030453  15530.850524      0.075549                    
P 27  10609.694576 -22292.264745  -9457.292839   -238.296835                    
V 27   9442.591444  -7602.207063  29228.058077     -0.107680                    
P 28 -13528.411257   5690.565039 -21559.668989    732.914904                    
V 28  -7212.013062 -27816.594738  -2606.947266     -0.027662                    
P 29  15197.725010   4590.704160  21258.965406    -56.362248                    
V 29 -18487.544549  19694.008232   8931.465626     -0.092710                    
P 30 -24560.991198   2139.101783 -10113.704163   -175.245676                    
V 30 -11916.341778  -5664.510646  27451.470903     -0.087294                    
P 31  17076.864190  -9440.865776  18185.127995    -29.381389                    
V 31  22225.567437   6112.439152 -17206.070617     -0.024422                    
P 32  20341.129221 -14323.941995  -9024.538335    236.022795                    
V 32  -5327.471495  10687.551363 -28882.132765      0.091536                    
EOF
